<?xml version="1.0" encoding="UTF-8"?>
<!DOCTYPE osm SYSTEM "..\dtd\dtd_openstreetmap.dtd">
<?xml-stylesheet type="text/xsl" href="sitemap.xsl"?>
<osm version="0.6" generator="CGImap 0.8.2 (16932 thorn-01.openstreetmap.org)" copyright="OpenStreetMap and contributors" attribution="http://www.openstreetmap.org/copyright" license="http://opendatacommons.org/licenses/odbl/1-0/">
	<relation id="340902" visible="true" version="8" changeset="79253588" timestamp="2020-01-06T14:58:25Z" user="Verdy_p" uid="90780">
		<member type="node" ref="944657371" role="admin_centre"/>
		<member type="way" ref="45328035" role="outer"/>
		<member type="way" ref="45323912" role="outer"/>
		<member type="way" ref="45315584" role="outer"/>
		<member type="way" ref="45328027" role="outer"/>
		<member type="way" ref="45328038" role="outer"/>
		<member type="way" ref="45326176" role="outer"/>
		<tag k="admin_level" v="8"/>
		<tag k="boundary" v="administrative"/>
		<tag k="idee:name" v="Aldeanueva de Barbarroya"/>
		<tag k="ine:municipio" v="45009"/>
		<tag k="name" v="Aldeanueva de Barbarroya"/>
		<tag k="population" v="664"/>
		<tag k="population:date" v="2009"/>
		<tag k="source" v="BDLL25, EGRN, Instituto GeogrÃ¡fico Nacional"/>
		<tag k="type" v="boundary"/>
		<tag k="wikidata" v="Q1641564"/>
		<tag k="wikipedia" v="es:Aldeanueva de Barbarroya"/>
	</relation>
</osm>
